UserId,Address,City,State,ZipCode
2220114025906176,613 Pubnu Manor,Bunbevi,NJ,19681
3413099778408448,1825 Likfug Manor,Kijtaen,VT,29597
8878185687023616,83 Hait Plaza,Voizedop,WV,22559
895822275280896,426 Boino Mill,Acrewed,SC,30653
4138516137115648,1882 Uvafil Parkway,Dalaluc,CO,54850
1563653662834688,1200 Homulo Way,Saruji,UT,38024
1243957134622720,1950 Fabrit Court,Avupoloj,ND,79618
8100519023214592,1450 Palwi View,Icpemmi,WY,17619
4997646250934272,18 Jehed Extension,Riseda,HI,95417
8854699304288256,435 Susgo Junction,Uhasakuj,NE,60989
1457382618038272,855 Rafik Circle,Gisoke,VT,05548
7636764273410048,1926 Wipmod Key,Hutwekti,NM,83298
6515036744843264,1894 Cejuhi Terrace,Imocovzo,KY,90567
6261203212959744,1942 Fuzok Court,Rirkiuha,IL,10825
2973691881193472,1306 Onazac Path,Rebkigfi,UT,13087
5291280099704832,619 Runwi Point,Riutis,UT,15627
7413898705633280,1808 Irfin Ridge,Hefinho,WI,14021
2170228171603968,2000 Wulit Square,Amodiru,OK,83855
2610644612284416,483 Vave Road,Pujgoza,IA,14700
4781961132376064,1355 Tagim Ridge,Wefvofic,AL,94889
7074347428610048,590 Lopeve Junction,Rojujij,NE,74628
1803277507231744,1154 Vain View,Duihur,OH,02017
4479752870035456,1724 Foeg Court,Isuwve,NE,12142
2214354407653376,814 Sumjon Boulevard,Gojacubiw,MA,54318
2745937952768000,446 Jeneh Center,Momkustob,ND,28727
1232469915336704,1294 Ipiolo Pass,Loheminaf,NE,87263
4888089168183296,1368 Govu View,Mepuisa,CO,66722
1642514731761664,378 Puor Place,Roputun,ND,20826
1390535581368320,987 Rerkes Loop,Liavutek,KY,41094
3125804846284800,1754 Hanes Court,Ubefuow,MT,88447
5195835650342912,735 Rosiz Parkway,Woovtar,AR,78630
6653592620498944,1808 Sachid Loop,Folurut,DE,34413
1821123333324800,1279 Ihse Trail,Hifbujep,NJ,92506
1589906115657728,486 Zufbi Loop,Micoivo,WA,05907
8133378243035136,1492 Gosut Terrace,Maligup,TX,33402
879412308344832,658 Ubulon Street,Medozmif,WY,84802
2709674725998592,708 Nait Boulevard,Neitevut,PA,58152
5586913287208960,1516 Adena Ridge,Zapaane,AL,24307
945942521970688,653 Neag Grove,Pevhizto,NY,54904
7153366041886720,1982 Dowdin Way,Iwuviba,ND,72775
3457030517948416,589 Ween Parkway,Lufvabnub,VT,10205
5527279006384128,677 Jukuv Avenue,Rajarid,NY,82943
341124436721664,1903 Ijiek Key,Ubriju,CT,11452
8490678573072384,1865 Faaj Center,Ujuhota,ME,13542
4596640505659392,1191 Giib Street,Woputig,CO,59882
5344197150244864,1256 Bubdec Court,Tujomicez,IN,31519
8909576059486208,667 Walo Terrace,Uhumabig,SC,26423
941380266360832,730 Zuse Extension,Kiwerzu,AR,45593
728400712957952,65 Imuco Square,Abrisfiz,WA,10207
2862096341532672,1282 Ivwu Grove,Hegtanpok,FL,90564
2296652605947904,858 Tiloje Loop,Fofipili,LA,40711
1634182027542528,303 Rikik Street,Wupsiced,NY,92475
7671739576221696,286 Lebzo Road,Ivatacmub,PA,91844
8519607425957888,240 Loal Center,Cijmuno,AL,52249
2551773325688832,1916 Zolna Terrace,Ejlislik,LA,30159
7320928950157312,832 Sobec Drive,Jubupip,HI,88992
8473121545781248,1240 Cenmi Road,Gigisvu,CO,05575
5302612157005824,1547 Hadvos Drive,Weztozne,NV,89290
1351072239058944,179 Ucevic Park,Incaka,IA,66281
3512662591799296,455 Ileke Plaza,Gupobi,NY,34134
4104267988205568,869 Toghiw Heights,Resulo,SC,06866
8539077150244864,322 Hukoz Loop,Oninulof,TN,49134
7805661463183360,257 Gufra Street,Pucculo,KY,22759
5146839875584000,1190 Ukufub Terrace,Wenopceb,IL,40018
5091122695110656,5 Fodgid Way,Kajedtu,RI,97857
1677216758890496,1942 Gopa Road,Rabokgi,MO,86491
5539386122829824,430 Odaon Plaza,Wecnivrav,VA,28628
76412052570112,130 Jujumu Drive,Vovufse,DC,44393
3969438395138048,502 Hihip Place,Pintople,DC,98405
3181316442947584,999 Irlub Key,Hoipege,WA,13680
2867526711115776,1849 Fohoka Loop,Efugikkac,MA,92721
5508720855351296,337 Jejbez Key,Envelese,NJ,93604
8770180129751040,1248 Guwve Ridge,Jinunofon,AZ,27085
1369192582348800,126 Cavi Heights,Ilzirte,TX,37178
2630470382649344,952 Foir Center,Izvosva,OH,86271
1270611567443968,103 Kokci Terrace,Rizlegop,MI,91616
4779700247330816,871 Faif Court,Zijiti,RI,80488
1410855184891904,1859 Selu Mill,Kifvagir,MN,47052
3959132415590400,1019 Zaap River,Hetmave,GA,42293
4724674669838336,880 Ajagoc River,Tisugosi,UT,73560
3574751259787264,1838 Ucese Center,Nojvuzi,AK,89679
8050100219674624,1195 Radpow Point,Juefiwov,OK,78495
6857567502336000,1980 Cawkug Glen,Hujopha,IL,64706
2232820273512448,478 Takpe Manor,Rumuen,MN,23173
560084272807936,1196 Solheh Heights,Haveppe,DE,88822
7521687457234944,855 Dovki Road,Cinolnu,OK,92053
5899908919853056,1810 Rapez Boulevard,Bunadive,FL,59115
4306333639639040,1551 Emul Manor,Lenatmi,IL,99878
5635853397262336,880 Hioji Point,Elucore,WI,76986
8424455885815808,985 Otuwe Glen,Soptukib,MO,18113
2972387240837120,784 Zaphi Way,Zokuga,TN,94096
6731672636620800,1428 Ovuri Manor,Cehiziwu,NV,21180
6363202304606208,1923 Baap Plaza,Tutoto,TN,83745
2527371773083648,474 Kopot Terrace,Delonaf,NJ,48002
8567021155385344,649 Wuvhu Circle,Vikatodur,DC,77385
4330159893118976,220 Sodem Path,Nukcipun,IN,46531
8070087084867584,950 Pozeh Court,Zomuhafof,WY,75221
6774773510045696,1148 Ecuzu Square,Abugelif,VA,08659
7292557077774336,1685 Piil Drive,Pehitger,MD,68673
6542756933533696,38 Ginazi Manor,Wufirviv,WI,55740
5401700449910784,1346 Webe Extension,Bewkoop,TX,79045
2572333474643968,1073 Teare Road,Wavuna,FL,23045
8972523263754240,929 Pudwuj Park,Dumvulgo,FL,98116
4699092789755904,1829 Boztow Grove,Dugwipamo,ID,77445
737657413959680,407 Hujaj Park,Ikotusiv,LA,90655
2189691386331136,1362 Etijo Path,Lapcakeg,MN,04311
514908558983168,1010 Funuz Glen,Idarudso,SC,29200
2073795391127552,1072 Tutga River,Potpova,WV,29164
2810418911248384,1548 Togi Path,Pamoftu,ME,14902
6060272559063040,316 Caer Key,Weruke,NE,24844
7491113822715904,1696 Karefo Road,Boebular,WY,11903
3343489605566464,497 Zepel Point,Licuvi,OH,99589
5651610954891264,793 Egopo Point,Lotasduh,SD,23793
6972373020442624,1066 Podor Boulevard,Jitvohav,AL,42734
358362340392960,1981 Ehnaf Avenue,Fansotsej,MI,27488
6103611754938368,526 Oroze Center,Wundera,MD,67266
270921738747904,573 Sabgus Grove,Tanijhi,MA,73452
1528571145224192,199 Toppip Pass,Debogjem,KY,32659
7152082094129152,1020 Kaeje Heights,Hocesoz,RI,67471
4644054860038144,463 Wasin Key,Lujudwip,SC,53724
7870100503789568,641 Celmu Trail,Colsovfi,NH,71673
6601011722452992,971 Utibi Trail,Papicce,NE,24326
3484809766633472,1459 Fidoh Turnpike,Cagabci,NM,69601
1808160182501376,1818 Holpi Pike,Wijmosuh,GA,14540
7137514942889984,500 Filmeh Extension,Ifmepji,OK,67888
6760694227664896,1493 Jeit Circle,Keamrih,LA,31377
3088145463640064,1484 Womu Glen,Lucijpon,NC,53983
4298375816019968,1052 Vovi Turnpike,Midkazic,AK,61068
721489378672640,163 Ugufa Path,Mepbigpiv,NJ,95171
5138636148310016,1234 Webco Lane,Ucufca,IN,27901
5336795344535552,640 Pomdof Avenue,Kusuffo,UT,51328
3416740327325696,18 Eggi Place,Runfokko,ND,90491
101581915684864,1352 Pujuf Square,Unadamife,TX,76238
6693551844884480,1970 Fihal Ridge,Zaatiwom,VA,57873
8241684431241216,1812 Suol Glen,Zurubeg,MN,75002
1807904516603904,1685 Hura Turnpike,Uzihawe,MN,78379
3975290132889600,353 Otapa Junction,Tubiphi,MN,50173
2922113316945920,629 Dijdez Junction,Ahicahat,KS,82130
5536796351922176,754 Tinco Boulevard,Wegafutu,NY,73062
7871118243266560,1836 Risij Square,Lincazawa,NV,96799
2998846428807168,1323 Cikki Boulevard,Diskofu,MA,50152
477504286490624,350 Tihza Drive,Riesco,UT,79859
5355767150411776,982 Upara Boulevard,Tamepile,NV,13843
6174209904476160,506 Zakumo Glen,Mewakkar,NC,71864
4070470500483072,983 Utari Road,Selivfaj,IA,00575
1547709018275840,1411 Hezus Parkway,Faluvveh,NV,88802
5869793997488128,94 Buwol Way,Ticorij,VA,37193
3698480509878272,1454 Sevjak River,Wakokwa,NM,61322
8773463881809920,58 Jumoh Road,Zujrobo,DE,50195
7004450143076352,545 Terev View,Dupadduf,RI,26512
1367665580965888,885 Nimum Avenue,Cadezop,DC,46019
8522094344142848,679 Ugaci Circle,Polepgi,KY,50097
2523177701867520,1545 Hisafe Key,Atesojwu,MI,23124
3732528307372032,1159 Leoc View,Torpahet,DC,82493
7011833118457856,839 Gokuv Pike,Kepeta,CT,87790
3974806860988416,1376 Nima Ridge,Repeprac,RI,05724
5043829847621632,894 Kommek Parkway,Curohve,MN,60740
2299002936623104,1977 Lofzu Plaza,Tocuvlud,AZ,93861
3971448601313280,1038 Efuop Highway,Etfisfuh,TN,45073
1698947699572736,29 Weva Turnpike,Ahnovju,VT,65903
4966272892665856,253 Jazsi Circle,Petatel,VA,03046
2554288138092544,996 Mezu Ridge,Popluga,WV,16702
716058623213568,551 Tuige Parkway,Kopacsa,GA,96277
6570300019834880,1110 Nodnar Extension,Cicahco,IL,74677
1518394104872960,960 Pino Lane,Penlicifo,CO,60148
1187622273679360,175 Tazgo Drive,Zivtoihe,GA,72348
1365952874676224,1857 Pimu Ridge,Roniul,NM,41148
5587454977376256,515 Ginkip Way,Tejime,SC,82276
3141829176328192,1152 Vokum Pass,Jajsunoc,NM,57580
1519157292040192,10 Gama Ridge,Dehesupob,KS,75544
6520084824588288,516 Ezevol Plaza,Putgieme,MN,64422
98929762893824,1247 Hule Grove,Beocpe,KY,67015
7874392811896832,739 Wufum Mill,Goccevli,WA,14659
2321342573576192,682 Rawab Loop,Panvaru,WV,45339
6332759299588096,401 Zorimi Grove,Povmajduk,NC,70167
7352040298643456,189 Icozu Heights,Rafite,AZ,02265
4193079009476608,696 Unuge Pass,Cisfolaz,DC,29991
188911928213504,1440 Jabhe Terrace,Gulaheek,SD,02944
7912827616493568,902 Line Lane,Gikmicdar,NJ,40730
8445531407777792,1503 Ettoz Turnpike,Laseta,UT,17593
5113230294777856,658 Efede Terrace,Idsecga,AL,67500
1408129233321984,1908 Uharot Pass,Pofewluh,NV,04782
5736147279937536,1437 Jatuhu Court,Jeviwoda,TX,13576
6267466713923584,1585 Dagi Path,Zihozeb,MO,64599
7912057382895616,1098 Tula Boulevard,Osrekev,NC,91260
2244043564122112,774 Bimuhe Lane,Gakiwsiv,IA,11248
7508913301749760,374 Mobim Boulevard,Ajafuha,MD,66533
6745135266136064,1198 Buuse Ridge,Ukukelu,IL,23065
1371328632324096,1376 Gibla Pike,Diwohius,CO,99611
4953156182081536,141 Pojmur Square,Safafu,MS,36524
1622753102790656,552 Guvada Parkway,Inakoenu,ID,42505
8275258404503552,1531 Jeloh View,Temewavo,CT,03438
6006270081368064,1962 Kezha Terrace,Pujekivi,NE,31520
1508678498779136,987 Huveh Pike,Kipfazme,MN,02325
990799370125312,296 Kotze Avenue,Dubomo,MS,34885
7819893015576576,1178 Fephos Path,Roipjet,OH,79219
5858170926792704,197 Udagus Terrace,Zutijfig,OH,70403
7771839564611584,1221 Ibuan Highway,Tujveci,ND,78385
1645865418620928,159 Vifra Way,Ursega,NJ,09278
2250573522927616,24 Enazuc Mill,Cuwpojtim,ID,10126
4017786961526784,1003 Piuf Boulevard,Awisibe,NV,15609
3243953568612352,1579 Onadu Street,Fewecob,AK,51201
1793414857228288,1905 Bira Glen,Fauhowe,NH,69801
8723461285347328,300 Eguwug Way,Ebmoje,TX,68465
311212061491200,1428 Atja Key,Pifpihe,MS,69926
5731002792017920,974 Suvan Square,Inmafve,MN,27285
6429861641977856,533 Usmi Center,Otkugba,IA,43384
1146988479381504,372 Zapu Extension,Kaohri,RI,38018
3397911763222528,277 Ifaabe Path,Tituwfo,OK,84063
1781911873650688,269 Wukah Street,Ewaevguv,KY,29705
6237360509419520,942 Naic Pike,Ecpuos,TX,12523
4530938344112128,1551 Fukas Park,Geotocoh,ND,79121
5786938132922368,247 Mihbi Drive,Cufetug,RI,47529
8351791345303552,295 Nujuc View,Bosjutnuf,LA,69739
4768679239614464,1161 Kojvel Mill,Arizebev,WV,34128
6081033921363968,1921 Zulolu View,Gihabgem,IL,32356
2241867471126528,1857 Tide Center,Majarcom,KY,28154
2889358336065536,1622 Ogukah Street,Huhahun,AR,55012
4723972050518016,229 Saehi Point,Wopmalvu,PA,71088
884285665968128,1337 Lapaf Park,Gewkotjib,CT,09008
3337514184081408,710 Uduga Pike,Duhunwen,HI,07205
5037791287181312,273 Ilgo Road,Ucetofoh,ME,44251
2307329443758080,365 Inpir Trail,Namockon,CA,46216
858967072833536,914 Vuge Extension,Vezkursek,KY,69701
2855149502464000,852 Icoan Path,Pudfotpa,AK,00799
7922752023429120,260 Sewe Park,Urewazfo,OH,78298
7635279525445632,1188 Okuma Mill,Wersiwcef,TX,95821
8555299556294656,305 Miur Park,Jonubop,TN,18025
8799945463169024,989 Duprug Trail,Sibmuad,NE,95172
7957995908497408,1211 Ogabe Loop,Zahdaros,FL,04660
6063214963982336,83 Fado Path,Pomkozbiw,KS,27881
929146505003008,1436 Boil Glen,Urnanod,OK,20283
4738377790259200,808 Dutu Heights,Iwjuep,PA,76840
261412869898240,521 Reen Place,Fuajien,HI,82120
4143417401540608,1009 Duvhoc Pike,Tussazuno,WI,79244
1754831756722176,983 Etic Street,Utizesahe,WV,64053
6403817327296512,1013 Zapne Boulevard,Haminuhi,OK,95667
7729233709236224,922 Filid Avenue,Vabekam,FL,34399
7793923795714048,88 Surrab Highway,Jarine,NV,28980
4387725083934720,1786 Funju Extension,Jamukajif,MS,96320
6371636257226752,1990 Adduz Place,Obeuzhe,UT,27741
5510828505694208,911 Kuuc Grove,Naowivan,CA,30950
5798252895010816,1211 Hifag Path,Cunlevki,AR,64037
7703229372563456,90 Voplas Road,Ehovahko,WI,94061
2823473174937600,1333 Irufu Mill,Ofaobigo,NV,98988
1746588422635520,218 Ozeuzu Boulevard,Gimepi,SC,67414
3126994002771968,684 Eposi Key,Zoobebu,CT,83973
8416172181553152,1095 Kenpu Lane,Hihusaz,NY,93170
6823327045779456,973 Igkob Avenue,Defobpav,MN,96705
8016486369067008,130 Tiur Pass,Woipihi,MT,09152
1452266609442816,199 Kuhjim Manor,Hepfubfuk,OK,57582
8061145105563648,1373 Webad Circle,Hutgipdi,TX,12403
1018565993955328,267 Punhos Boulevard,Dedawejo,MN,71971
7090060304318464,685 Zosu Center,Bizhukkat,NM,97330
4782420098285568,1258 Abaet Heights,Abbida,NV,16468
4475179530977280,733 Udiso Square,Latcudma,NV,84759
2998407476019200,1678 Aresu Pass,Iscerufe,TN,66107
2761262087798784,919 Ijvu Terrace,Kokotaveb,WA,15900
112110344339456,1556 Lelmap Mill,Ikdulub,OR,23961
3943684714266624,551 Isinaj Boulevard,Giriomo,AK,54434
6817452067389440,788 Damat Heights,Gerpaltus,FL,30748
1152675622158336,698 Jarlo Parkway,Icsutof,MN,50117
3783656015396864,1415 Nebis River,Lezcejic,OR,90463
1636263268450304,15 Otip Highway,Ecluto,IA,19866
6089157724078080,235 Waem Ridge,Ahenezi,MS,12736
1218090998169600,1377 Zeiga Ridge,Objita,ME,14179
8118685587734528,1571 Luen View,Tirijzo,MI,08739
653977645481984,1560 Vivuc Turnpike,Redibfem,MT,87715
2619245189922816,866 Godo Place,Sizawve,NJ,20559
2979252173537280,1556 Oveto Point,Zarloszer,UT,18908
2689678574616576,1834 Aroise Park,Vogjetsa,OR,09516
2974892802703360,635 Telbu Plaza,Vasimen,CA,54840
7151967428149248,1706 Meoh Lane,Utsolhis,PA,10866
3619799129128960,1876 Vukavo Court,Wogtebak,AK,77595
4675947064197120,978 Giface Ridge,Alowikeb,VT,99601
5344397256294400,228 Kafja Grove,Dokuvwa,NY,40184
868412060336128,1651 Uwwih Road,Zuganah,RI,82581
356395176165376,873 Ikeen View,Nadbicep,NJ,37441
4862136983486464,1530 Apmaz Pass,Weirovus,MO,47379
4623835441659904,17 Gegon View,Bowadwa,IA,52480
5942871465132032,1569 Zutkic Circle,Rakhujrin,MT,66713
7913505088864256,1678 Ifimun Street,Kujluvep,DC,21287
2031525684051968,274 Gudur Key,Gebonar,ME,46498
5973342465032192,946 Zaob Glen,Bekwitej,IA,18342
428922950909952,454 Nezpac Street,Oggimuj,NJ,26549
5759327805636608,173 Ihiaj Square,Pewadnin,MN,59244
8508334273462272,625 Jamar Junction,Fabukrud,KY,57763
7421575798194176,1098 Irmoj Square,Azevabjup,NM,37891
224486066487296,500 Jojcos Lane,Cezpivce,TX,46755
2836716373147648,415 Areut Pass,Geuwjar,TN,58101
5454080449183744,1512 Rurre Park,Mipevfin,CT,75521
1243173984665600,1641 Nekuv Boulevard,Nevhuvaw,CA,06432
3352211950141440,41 Nine View,Ektonwe,NM,15831
4764734117117952,373 Silvob Highway,Niidida,WA,45923
6161847782735872,1061 Jaoz Avenue,Genumuga,MT,91498
3609185281376256,911 Ozop Place,Dufanacid,IA,64720
2559455277350912,1508 Kejik Mill,Bawacdi,NY,97927
8586906841382912,1105 Cowaj Point,Kicejpi,TX,46480
5598400741376000,64 Bibe Plaza,Erafoli,CT,89617
2914840681119744,69 Popam Road,Kekewbe,KY,59003
970578322259968,1365 Nuet Center,Irwawoc,OR,99620
1956580501225472,89 Joppoc Lane,Sucirro,VT,60944
2238421821030400,161 Ivowi Court,Vimrijzof,LA,14257
6865854908071936,1835 Sishif Boulevard,Ampormu,ND,26111
4815419319779328,1861 Dere Path,Fozewam,DE,47859
1545575128367104,1157 Geije Loop,Viwpakmaf,AL,62442
7250618615857152,1294 Depev Mill,Hicuripi,MD,30389
2037026186592256,175 Silzi Extension,Zuzinpat,NE,47144
851089979080704,408 Nahzat Square,Darupfem,TN,63955
692653165379584,1796 Babri Drive,Opunni,IL,35583
8892579313614848,1426 Seaja Boulevard,Fucnoksu,MA,03910
4085089220689920,738 Ugera Street,Herelaviz,NJ,59678
1829569216643072,1133 Oveja Junction,Hememek,IL,69675
1163922759483392,899 Dopu Point,Sepbaek,CA,86187
8012346114965504,70 Ontos Grove,Irebolde,IA,88542
1362557598171136,1020 Romev Key,Cazpelub,VT,08982
4806320903421952,1577 Fave Road,Odinoti,NJ,11549
5396170597728256,654 Gugu Square,Gotbuju,VA,19052
7010905824952320,362 Pifefu Circle,Voegvu,WA,64045
7362984458321920,1155 Catu Trail,Zizevrov,OR,71798
7399105758232576,312 Wodov View,Hupuvme,CA,95218
8293081348571136,1863 Norlev Highway,Kojwisba,NV,86187
7340112845209600,1567 Moge Court,Fujuwu,TX,73419
164130103230464,1443 Pusjil Junction,Waunelu,WY,23004
6734207688638464,880 Ebko Road,Mehgofa,AZ,91884
2911038167056384,1079 Tulsi Park,Bubzokuw,MO,10965
8987921572954112,442 Alkiv Court,Efejabdi,TX,11509
8599572609761280,737 Ikzi Place,Rigjubvar,WA,30785
1770870439673856,1509 Bupo Center,Werzakoco,MD,06291
2577093502173184,382 Wahoz Parkway,Jahzimzub,VT,38330
2431927837523968,961 Beud Pike,Wuiwuuw,FL,64246
2402950955663360,1628 Lalla Road,Refanfat,WY,40262
330603251630080,1149 Ifco Mill,Noehlun,MS,53891
8213197085474816,152 Lusod Heights,Tudassed,LA,41613
3492169079848960,26 Kazdo Way,Gezmiuwu,AZ,72622
4774301542645760,409 Pagem Loop,Zusuwu,RI,87872
8206496225558528,1349 Gigzom Turnpike,Abranes,IL,89789
2079470806630400,1175 Sana Mill,Zadauz,IA,96791
7599616820248576,915 Vubcu Avenue,Lililmo,MO,66678
4053868702859264,1597 Beeb Avenue,Ojsaho,KY,64884
8647399970963456,1810 Jaat Turnpike,Solpaup,AL,57944
3531633810472960,946 Sufa Parkway,Mederpa,NC,81654
3600276474822656,1343 Ruked Path,Ricwuga,PA,50925
4247806564892672,1270 Vaube Point,Tacusaju,WA,91619
1643212202573824,1173 Tonbi Glen,Tiszecor,GA,55369
453910307274752,359 Romvi Grove,Raipizu,OH,86576
1997230741389312,146 Pecto Grove,Ivifugwab,MN,68561
3841325728268288,1908 Otgal Pass,Vuppejwe,NJ,52469
4403340486115328,65 Ceci Loop,Zudwovvo,OR,54004
828098606006272,1507 Rewrut River,Deicebi,AL,95047
4317308772155392,250 Fopjut Path,Liwneloc,VT,47458
5470245391171584,1903 Ofam Street,Hosziwag,LA,68347
6067837300899840,981 Epaveh Mill,Hesmeuzi,KY,21785
696403665879040,1967 Naeb Ridge,Isofhib,LA,95097
5635625560571904,534 Dahehu Parkway,Civijro,ID,75058
3180598602498048,376 Eramak Lane,Rugiwus,ID,59952
3104851481329664,1097 Joohe Plaza,Feowiwa,OH,84494
1776157936582656,451 Mama Park,Wuljibo,ND,53138
7510104366645248,1614 Velcoc Drive,Zaskugbu,WY,20746
7262735706357760,1467 Ahad Road,Pecicacu,ID,72740
1358836254375936,95 Zonje Court,Vupiwzin,ID,96597
7552799785091072,1661 Kufi Glen,Lidoggah,DE,75608
5779445906407424,1108 Gokmin Heights,Cazrupo,RI,13883
7464115802996736,716 Tegtip Extension,Navedemag,WA,88435
7364312618237952,704 Ekikes Manor,Ranruho,OH,56745
7832701363027968,1411 Locik Place,Osarotin,AK,76764
7851227297611776,326 Poit Extension,Ranucko,OK,33512
4492738204532736,78 Gagi Terrace,Ebovuif,WY,48802
6951772648112128,1052 Zusub Road,Ekbikef,DE,11747
4063770838040576,326 Jiziz Lane,Ripemmu,OH,23355
6063358044274688,1247 Veuc Lane,Oktezodo,MT,24867
4911597183041536,1940 Wihis Park,Jozsazub,IN,42892
4655360887488512,1293 Mocva Pass,Gahwibuw,GA,67048
2858629317263360,694 Sehu Square,Vorawlu,NV,09287
3044921678233600,149 Pigvi Avenue,Kuazwi,AR,88994
241045514223616,1787 Tele View,Wazufoc,ID,43870
7200868189339648,1605 Zumi Grove,Osuhaoha,NV,60668
7367168045875200,1164 Ikesa Square,Tajdevi,KS,08983
516541030334464,1748 Wohuvo Extension,Pedele,HI,11032
837311103238144,70 Licvoc Turnpike,Ejkeluc,AK,49034
2589313457979392,223 Guger Grove,Delmeraz,PA,47455
2188997115772928,432 Umsab Drive,Oratijade,PA,92204
1852282572374016,1962 Gaddu Drive,Tekgawod,LA,27069
2407406407516160,1774 Hiad Place,Bawtazco,TX,78524
3303400737341440,1964 Mije Place,Ruvoti,OR,61482
4185436652044288,1256 Ivedu Terrace,Otjiul,KS,36831
5141034572972032,859 Pulo Court,Etnozoh,CT,52974
3025988501897216,328 Illum Park,Sirhowbu,MN,76095
6619032698486784,553 Novra Center,Urciwoh,HI,69809
8031830760488960,1861 Babnu Point,Apnoblip,AZ,44466
3494680939462656,1500 Same Trail,Nifokweh,TN,95228
4795394397569024,939 Wejab Highway,Vitzagoh,MO,39072
6129864778186752,240 Emejuj Extension,Vumebfi,NE,62567
6092567452057600,1226 Guzmi Court,Wejkoufu,CT,91688
8913085316202496,1128 Ragap Street,Bivfewpa,AL,21823
3253874825625600,1228 Mejoh Grove,Ipotaoma,DE,34624
1056191692144640,869 Bafog Pike,Heokorog,NC,21984
1629202400935936,1762 Tokhu Mill,Habruzop,NV,82821
6835786360029184,529 Lonem Park,Unhivi,MO,75453
279353325780992,1974 Ufoput Point,Icarahcag,WA,73986
2236075414126592,1293 Dicuw Court,Bisiwow,MT,13104
5647974187139072,614 Gazcuh Parkway,Kusutid,NY,59744
503237297831936,1146 Nitu Key,Salivir,SD,11710
7623343347859456,1763 Lavnap Loop,Sediteh,UT,14482
8181872439853056,483 Getuki Grove,Tojutufu,OR,75774
1155692308201472,995 Pefub Manor,Nemjagjib,OK,86551
3635424381632512,719 Laapo Boulevard,Linigma,SC,31075
2414842891730944,686 Rodlej Lane,Seudad,TN,63390
8402280978055168,1545 Rollir Point,Hotouru,MA,66626
4077401384419328,296 Zemur Avenue,Heduduig,NH,73677
8921379378298880,1701 Narbo Pike,Lajiulo,WY,05202
4766116444372992,1796 Hakha Key,Nibazus,AK,97141
8805895934836736,1620 Colew Key,Davowno,HI,66758
8450795884249088,963 Isev Street,Evkavri,CA,46094
334038462103552,1779 Kifco Grove,Funabo,AR,43197
6417571542728704,29 Pesiz Circle,Saevasir,AR,14568
7481102868414464,1878 Sena Heights,Bisowez,WA,28704
8923264480968704,229 Duvi Plaza,Togocemo,AK,97705
8555243344232448,692 Libcu Drive,Gubbafde,MA,66618
1054784591233024,280 Fotu Highway,Fihwerko,VA,40501
2544799557091328,1987 Arecij Heights,Ovmofsol,KS,61957
7030711527669760,1340 Midez Way,Gojkesajo,MI,80109
7876300928712704,1433 Kifa View,Witano,CA,20789
6260973969080320,1141 Hize Turnpike,Godatuha,VT,93853
1716787833995264,1287 Cajic Road,Ardujom,CT,56777
8134925689552896,1151 Eluca Point,Botuali,GA,94399
6717148504260608,663 Wiudi Terrace,Civebak,OH,11009
1968901334237184,1406 Ulpa Place,Jizcouru,GA,30244
3894852974542848,896 Jare Park,Ikoufzej,WY,92041
1820997755863040,1067 Ejnez Trail,Uniavojuw,WY,09746
6128707404038144,1274 Jamcik Boulevard,Ebkawil,MA,98718
5475466651631616,268 Okfa Park,Awdior,HI,87304
5441914329366528,1063 Kadni Center,Hipomla,NC,44398
1301207213670400,1682 Nimi Turnpike,Ukowuduz,AZ,09492
8664446532583424,1457 Esihe Court,Cidirago,WV,27879
7588375148101632,273 Dabiv Square,Guddonzag,TX,48706
8434013052076032,144 Diclid Manor,Jowois,UT,13123
6087235793321984,795 Pubdev Lane,Nebufo,HI,89912
883312809738240,416 Alijop Boulevard,Foeheolo,MN,53652
4065184807124992,265 Gepaz Pike,Jobensij,CT,97216
4543353022578688,1253 Nujled Place,Zozzisti,TN,26464
2103188972896256,1305 Sigov Drive,Tacivun,NV,10715
3456919914151936,903 Poheh Place,Dehoces,SC,57534
7944186993049600,1457 Remfo Boulevard,Bizulha,MI,04992
2035510071525376,1693 Asodar Ridge,Riszebum,AR,88401
1983487374524416,468 Pumap Loop,Gorlafah,LA,08855
2358618395508736,1184 Rebep Glen,Agizmof,UT,72107
6457709375258624,1414 Esivif Pass,Huveszeg,LA,95156
3788977368727552,1317 Fucop Boulevard,Dacfodwif,NH,10855
8476499468353536,1470 Wolih Place,Emoetubi,WA,05286
4499005090299904,1799 Souva Road,Galtugno,NC,84522
4706189254328320,59 Ohuoh Highway,Iwonudhon,MT,13211
542536359739392,1765 Osdo Circle,Dewadpo,CO,83919
7285733182144512,976 Cophew Street,Ladsekeb,CA,55876
7655354800275456,446 Evousa Park,Enaogwi,NC,78784
7742938626916352,431 Sisoh View,Rakcuve,LA,93404
4699928825692160,1506 Dituki Mill,Iduuzori,AR,35453
6527058041634816,49 Jiki Glen,Kiinawih,OK,05705
2084385411039232,341 Cero Path,Dulmasad,MO,60826
4956454366740480,949 Suwkig Trail,Tilepri,WI,36883
3655486620565504,745 Dafa Square,Ponoig,NV,25169
4233248687259648,12 Zikned Park,Gufoene,UT,80040
8421520170811392,33 Dohfa Street,Devemo,SC,40907
2032888220483584,1500 Dassu Glen,Dozlubwi,NM,01570
7168921226444800,1407 Pecloj Extension,Hugjuzan,CO,41694
8664754293833728,230 Ifoece Grove,Bizdekor,MS,81627
1685388978552832,607 Natus Square,Racwetcuz,WY,90464
2081570485698560,1822 Heppu Heights,Atrorad,VA,44577
3048698734968832,1792 Numi Street,Hiwuja,CO,12573
5029955796729856,236 Ejli Street,Zasmena,TN,73425
8498622903615488,918 Sovak View,Olhegu,SD,35966
4484674032238592,577 Awavu Path,Caonda,RI,40426
2917557237448704,423 Hezob Lane,Sowovko,OH,39638
5484456420835328,218 Biti Junction,Civhigrej,FL,92319
493700232773632,519 Jaeru Center,Nonnupo,TX,97018
7244255336595456,1325 Fiedu Key,Gojegipel,MD,49493
8627937045643264,1974 Mooh Heights,Umugehpo,MA,32542
7241890330050560,1801 Zeguga Avenue,Selacvu,HI,14532
7976975268315136,1138 Evhu Circle,Govukamo,NH,98866
3012188056846336,1927 Bime Highway,Ucumamo,SC,87107
4158280809054208,1424 Efvub Extension,Vemevfu,CA,60530
6828861138403328,1245 Niwe Loop,Nusrezu,MI,98336
8108097534951424,759 Cujjap Road,Futofe,OK,38517
7217792562495488,130 Lase Circle,Utmuceco,MO,05537
4390558608916480,285 Faczo Place,Segadrut,NV,60401
2709304215863296,321 Sako View,Uhtilih,FL,86031
183226511392768,1001 Sawik Junction,Gehmiwo,HI,05750
6622102664773632,1167 Rudos Pike,Ohemeri,CA,92069
4344430811152384,1625 Zati Manor,Sitiliog,CT,17013
8190898846302208,918 Owed Center,Obeofihi,LA,02796
2180875861098496,1261 Imiun Manor,Huovcow,TX,20439
5312193396473856,1992 Orelur Point,Riwwozlep,NM,83582
975784420311040,1164 Ujpo Court,Onaperuz,MI,70954
3959708777971712,1067 Daupe Place,Valagdar,AK,45105
7771369198583808,1604 Wakrud Parkway,Avicobo,SC,56802
490789077516288,497 Citko Road,Pecajruz,ME,11609
8855999681134592,918 Emcek Way,Culevo,AR,28152
2432828461547520,933 Seroz Path,Fapfernu,PA,09935
3429717464055808,896 Mekmo Path,Ikuriro,WY,90054
7539416402755584,960 Nejod Pike,Odpuzi,ME,54126
2557112064409600,1202 Ijgas Lane,Hidakbu,NE,29941
280673390690304,1637 Jevif Pass,Pazvuel,HI,01016
4002777099403264,1860 Babvac View,Ipihejov,OK,31779
7022170676920320,264 Sallof Point,Wegujed,MI,34841
8911354551336960,1772 Kenuti Avenue,Azuaprap,ID,07343
2190902512582656,837 Izet Pass,Pukivuzi,CA,32898
2587575481008128,1804 Kusi Manor,Puukize,MO,88791
2621395978682368,917 Wica Manor,Ijrannec,PA,82743
7977930724474880,1506 Daja Lane,Haetife,NV,45484
8488716213420032,626 Coipe Way,Ipacadoz,NE,62255
4141100885344256,1524 Ratov River,Larbofag,DE,57021
491787774853120,1268 Dilgo Heights,Onoergud,NC,92891
4546427629862912,1708 Wuagu Extension,Hewevo,MI,19115
672467641171968,1279 Dawtil Circle,Kadzuhi,IN,05561
5698762978623488,507 Azazi Plaza,Acweizu,MD,72357
7258902995402752,1209 Nehjar Manor,Beijeca,MT,69616
8695697199071232,300 Zuzre Parkway,Punujabi,NM,94939
5672406720970752,1237 Buvu Way,Ovvoge,NY,72864
5103040673611776,1955 Vugbof Avenue,Fodouju,MS,76762
4636958150098944,682 Fefiv Glen,Osbatsur,ND,29459
4349401021546496,412 Elcez Path,Paecotu,MT,53966
1601259618435072,1709 Tilcu Glen,Domitrat,ND,10068
4353896837283840,1942 Taamu Park,Wikapaz,TN,96696
2018941228548096,1169 Suhduf View,Pezeti,CT,17646
8399585808482304,895 Vazu Grove,Sildajgu,NV,79207
5815147633311744,1949 Vihe Junction,Guvvowti,KS,84511
7643526506479616,1390 Cukol Way,Zaumgor,NY,33962
8259044695343104,918 Meic Trail,Liwlergop,NC,93880
3712137406971904,1612 Cukac Circle,Hajigu,NM,63726
4164400934027264,1529 Jofvoc Mill,Owpepaw,DE,01368
7180416645595136,1882 Okfa Boulevard,Nihtatide,WY,14061
723708475867136,1454 Ijesuf Circle,Nitajeaga,MS,80431
4324046768439296,1302 Nura Way,Vuluciw,WA,97947
4166091672649728,585 Etoni Turnpike,Oblidus,NE,97802
4969214368546816,542 Sacah Extension,Tubbaper,AK,44870
8407514456522752,1861 Fofno Pike,Oraephi,NY,19145
8813570999451648,848 Belib Street,Rinotwe,AZ,45536
132345883525120,1953 Erugo Grove,Hiwifeg,OK,78602
3147230275960832,1768 Pejene Extension,Wajalna,TN,38219
7210012128575488,628 Icjol Parkway,Potecajip,DC,15859
8102160967401472,1598 Osji Square,Aroogaej,NC,02549
3416398946631680,1443 Omimac Mill,Lazozko,NJ,86874
1966615895736320,88 Pasel Pike,Jimjira,VA,07216
3880133683314688,1467 Todok Parkway,Tunujzor,PA,57622
3799328680312832,486 Biise Extension,Onsodus,KS,47655
8558543370190848,1126 Dogtik Ridge,Navioga,AK,03340
2926083217293312,1000 Sodfol Street,Icjikdif,DE,53556
7676213896151040,1310 Ligege Grove,Webwupo,VT,08986
8674451778437120,1578 Ajunic Drive,Seamve,MT,88684
4441298123620352,1329 Utelij Lane,Caedomem,DE,86013
5308469806628864,1051 Javu Center,Lufmaom,WY,16306
8126062741422080,1282 Gice Park,Jiseud,NE,82530
8654439386710016,792 Cuzwe Road,Dozgecson,AL,19552
4816382344560640,1440 Bedag Key,Poliub,ME,75064
7020643788783616,655 Alose River,Furukace,AR,06763
8338451942342656,1521 Umipi Boulevard,Powogin,MA,79789
8112021537030144,288 Ence Park,Hanpiptaf,AR,69757
1673999880814592,907 Ejujoz Loop,Garvankip,SD,11178
8062728367243264,1839 Pudeh Key,Witrehi,OH,91081
7756409548570624,1949 Lujtub Pass,Vuvesa,NY,30084
4369417045540864,1348 Upjib Key,Fiofce,KY,94011
8147722261495808,1953 Hiomi Boulevard,Tisunraz,SC,17538
8296456825864192,1814 Neufi Mill,Uznawloz,ME,03561
5996795532410880,1102 Vatme Plaza,Kegetes,AR,57948
6350752056344576,1644 Dazu Ridge,Vavsutwav,AK,84406
5487103863422976,213 Kacuc Ridge,Hapogede,CO,25696
8781616495198208,889 Otke Road,Sevidva,WV,79104
1967720184676352,1010 Lean Ridge,Jotume,KY,05103
5554078885085184,1563 Cedij Circle,Cakerwe,SD,14168
863139822305280,1938 Vevvun Place,Cibirom,NH,87086
3068592960569344,1601 Irrah Lane,Vinfivkob,MS,61401
8459848127610880,529 Mavu Heights,Jiznejih,HI,93690
5073068865093632,1307 Maed View,Udurelej,KY,66993
426283464916992,1879 Hiczup Boulevard,Aceboico,MD,39199
1909773003915264,1701 Dikep Way,Piregi,TN,93283
5567770456489984,372 Pilmip Manor,Watlapris,MS,09436
1121836381241344,516 Lopo Pass,Urojezlu,NJ,60884
704259555328000,311 Ucogu Road,Bunhorlas,ME,10130
1681998728921088,210 Ramve Boulevard,Cawujto,OR,35897
3551384041422848,584 Soso Path,Lusnivmow,MI,48330
2645719236214784,1930 Pehco Extension,Vigliid,NJ,29119
6152556885573632,692 Migbil Extension,Sipuhejus,VT,00525
5634375500693504,1943 Erdo Lane,Owogurbi,NV,03446
3314617168166912,316 Omho Avenue,Pulcutgun,OK,68926
1322364430188544,1309 Cojij Plaza,Kasiwunag,FL,03649
8320536042012672,1543 Cevka Drive,Dezabu,IA,83375
7315733115568128,1456 Papot Avenue,Evleve,ID,06802
6069189410291712,1338 Rapzan Path,Umwuso,IA,35536
361360753950720,1184 Faptim Road,Durpehobi,MN,85573
1753821925605376,1648 Icemow Park,Kawues,IA,21352
3280254716084224,1601 Buoz View,Runiet,ID,91275
3516024641028096,1310 Vaak Circle,Gofsaono,TN,26944
4255937296596992,1897 Wadpe Lane,Tecineho,FL,56433
8344954883538944,729 Zinbip Mill,Mabsacaji,ND,56547
7068433692753920,20 Ugihit Glen,Lecirbe,FL,94430
8308941442252800,534 Caavi Circle,Hipogoco,CT,01369
3723378844237824,1416 Gaghin Court,Wuukuof,NH,80454
6822443817631744,1538 Ronja Pass,Wegzefdah,AZ,01814
5899335044694016,1272 Uput Glen,Otobbe,HI,26665
5294203904983040,993 Bome Trail,Wekjumefe,HI,03452
3788540525674496,1485 Pebkiz Trail,Inloce,OR,30108
3927464552169472,686 Dedni River,Ijaifcal,MD,15814
8647267370139648,1991 Tihen Court,Zucupcok,OK,18211
8948400596713472,357 Edpa Path,Pepcadmur,RI,68572
7218238664474624,1233 Teha Mill,Pilcaruz,ID,34346
7273238316974080,390 Bure Pass,Cusciide,OK,92621
6086798209974272,372 Raspev Avenue,Awujeubo,NE,37370
4810607714893824,1625 Reum Place,Kewoket,KY,72694
1785996010061824,636 Beun Parkway,Dudarbe,SD,46558
3249868361433088,1864 Zafuv Loop,Jiwescuv,CA,51007
1995229894803456,60 Cegap Manor,Givpiepu,NE,22623
3936253028335616,489 Zafud View,Faosica,SD,45512
4910350839316480,413 Noni River,Cuhugane,LA,22482
8470171677097984,422 Kuznen Plaza,Ahniwif,AR,38114
5519405664436224,1367 Gowo View,Zecziwsek,FL,60876
7272538755301376,9 Aclic View,Acemukewi,DC,33089
4155090883575808,1224 Wugov Mill,Jigamsow,MI,23673
8187241543237632,944 Nozi Loop,Lojezka,WA,78225
2287525884329984,275 Jeja Heights,Mugewpem,NV,03964
1413051530084352,367 Tisi Plaza,Vagigvih,AK,93521
6139174545522688,1861 Fedhi Boulevard,Guofiuj,NV,55626
4030359769448448,265 Ejees Way,Acmefbeg,NE,90737
4476550546194432,1036 Bifo Court,Cewilse,AR,60609
2479414705127424,1781 Runa Plaza,Galhagu,IA,88116
3294959585198080,428 Duja Loop,Izinidiv,TN,53756
6698041543229440,506 Civid Center,Eclaggav,NJ,56688
3128084307902464,1753 Iwca Ridge,Ethura,IL,58209
8844032633470976,1026 Pijaf Ridge,Anaeropu,CA,39178
2950007273553920,752 Ille Pike,Niligeuhi,KY,76632
6741417837723648,1233 Joge Highway,Zizupteb,ID,49835
3599961365151744,611 Cofimu Plaza,Misnoul,UT,07942
6634142013849600,1692 Evise Pike,Wupvicun,RI,53989
3157817338888192,26 Ekukic Highway,Woakuba,OR,11205
928331560124416,1512 Bufuj Road,Puwape,KY,93260
3965124811423744,60 Uptoc Point,Hehuhnu,AL,10377
8963439001075712,358 Cufih Point,Ifojimti,NV,94778
8379652802347008,118 Zibde Boulevard,Gedjurat,SC,15368
3832245676670976,1385 Vehumu Court,Gugiatu,MT,72725
1240815936471040,1732 Ubduk Plaza,Falpihak,OH,96482
7854441487138816,1013 Jancad Trail,Akoarupeg,NV,04175
7959225856688128,10 Efluw Boulevard,Asnuvbi,SD,89337
5067395431399424,1434 Ehva Glen,Sojlagjo,VT,86130
505350918766592,355 Afeze Heights,Toluneme,MN,15996
5904280112332800,227 Jiczow Key,Kuvecu,TN,56748
5745870681145344,1606 Hohmuw Avenue,Lecizom,LA,19357
5612614988070912,756 Wike Highway,Wamemukiw,MO,65279
1995161116606464,533 Gobdih Manor,Fovbusgef,SC,90451
5174183755513856,1969 Noma Heights,Pemnanev,DE,55233
2803915192008704,340 Rakzo Extension,Ciilze,MT,52658
3390347621171200,1813 Dadizi Avenue,Lorbejit,MN,41687
6924307032702976,1398 Vider Parkway,Asohaniso,MI,11585
6136836747427840,856 Agbi Boulevard,Diweki,MI,76152
1932343222730752,780 Bopi Pass,Podalah,NV,69027
3023225508331520,1370 Lati Center,Ipapica,UT,56955
624289355137024,915 Putpo Loop,Hanogoha,GA,30870
8275940228464640,51 Togo Circle,Jelogi,GA,22024
1799126419243008,1677 Ubki Boulevard,Wewebapu,IL,81545
4482953300148224,586 Awavu Key,Bihtujun,KS,36452
5637359729115136,937 Wukuge Pass,Pesebur,GA,85518
1893251294429184,506 Akupa Path,Edajagnuz,SD,18285
8934155242962944,1368 Hudaw Highway,Canahkec,LA,23607
8731122116591616,1978 Waedi Terrace,Taruze,MN,38945
7633530314031104,1312 Rojzu Way,Wiffatboh,MA,83318
7249425023893504,478 Gancel Parkway,Utetalim,WV,76137
593338807877632,622 Ogkar Glen,Kiocepa,LA,50072
225525329035264,959 Jajah Key,Dejifdu,LA,77903
1906566118768640,798 Fumu Pass,Elrakfi,AZ,57874
7628130789359616,215 Dapge Park,Gezeto,GA,74069
1996123627585536,1941 Cane Highway,Vapufjus,VT,66406
7018313840328704,1109 Evbu Manor,Mihitin,VA,97335
8122587263533056,1449 Osji Path,Imjogsuk,AZ,34440
6481088903905280,1593 Elti Center,Usujgib,ME,99353
6051047762034688,173 Wadlak Path,Zaicipoz,TN,74673
263820217942016,1504 Abigi Way,Wimreol,DC,70497
5589069524369408,581 Udopas View,Salofiwa,MN,69738
6264864242663424,1771 Gacmem Mill,Eraogba,MI,73552
4028513814315008,902 Vimdam Mill,Lerkugci,NJ,48523
2256692890828800,1485 Irce View,Pejazkiw,FL,24490
1362060841582592,1471 Depbe Key,Sizuji,GA,10288
850494417272832,1211 Pewkon Street,Uftudpe,OH,93059
7090136003117056,676 Hetjuj River,Rofivzu,NY,96451
5475846565396480,737 Akopem Terrace,Orefna,HI,24813
3914311363723264,274 Lenses Heights,Wuobiuz,WV,28349
2591148684083200,1802 Aduiv Plaza,Oraconfuh,VT,19286
3419207362412544,1243 Bifgor Path,Aremommo,CT,57000
3793174294167552,1393 Uhfok Avenue,Hihatle,SC,58302
1189678950645760,59 Agariv Terrace,Rodeco,KS,73921
5600888527781888,1270 Rodel Turnpike,Vagofov,NH,39091
6426444611715072,1334 Uzaw River,Ugbiiha,CT,72677
3426174545952768,1256 Tugola Point,Zitduhpad,MI,44084
5830757228478464,819 Rujbu Plaza,Rarwatli,DC,04679
5788809971105792,1854 Ramto Place,Dimcoas,KY,11997
1373630072094720,1090 Nijwu Terrace,Emhevol,FL,11783
6079014600966144,29 Gisoz View,Adrezof,IA,57584
359954003263488,1900 Niflad Avenue,Luarilol,SC,97646
2504444832907264,103 Wimwaw Key,Numetuopa,IA,71384
870008993349632,1435 Mentol Drive,Dalfovzaj,KS,40966
8209644740673536,224 Ponot Trail,Omunuvbec,OR,43300
3279328521486336,1671 Upke Parkway,Vugdevo,OK,09708
113978703347712,865 Ucfod Junction,Devumcof,ND,91091
5601750906044416,363 Leuti Mill,Aczuccu,MI,23747
2039829789409280,1600 Zamu River,Leajade,KS,52139
5191192293670912,276 Lipo Manor,Ikuvke,MS,08354
4296624280961024,1728 Zonjeg Place,Somraba,LA,21426
1135904622116864,275 Mowbez Key,Fejiwa,RI,92829
958410126262272,1851 Cutted Terrace,Lavhefe,NH,72067
477870161920000,215 Ifje Circle,Fivimto,IN,01757
8670210772959232,739 Culup Grove,Ozetorneh,MN,38962
107108959780864,238 Rumoh Point,Powwebuvu,IN,89498
4681780655292416,300 Laude Key,Mapolfi,NY,62274
4311743018827776,330 Ohdid Plaza,Vifotfij,HI,13484
7788633115328512,345 Ulovo Loop,Gegivilu,VT,22444
6855548993536000,1179 Ocka Street,Esijpe,IN,77648
6588451333865472,1359 Baje Trail,Zapwunvu,ND,19072
157945977372672,1885 Jucmo Circle,Mahozleg,SD,74899
8127074887794688,353 Leja Park,Tanaful,NE,59154
4304260799922176,613 Vivra Loop,Lajpekte,NE,62654
7139939451928576,1580 Mohnog Road,Duzuncas,NY,33930
5712514442592256,191 Ofre Circle,Edafaat,GA,90116
5583243040522240,556 Fiteb Way,Fadvejbuk,UT,25804
6365674278486016,132 Offu Heights,Ronugacoh,WA,00821
6017584241573888,944 Rovi Circle,Bosizgez,HI,01513
4444326197198848,800 Kodjop Highway,Hakifbe,NH,63576
1310881300348928,557 Zebwih Avenue,Volimaike,SC,59225
793934974418944,254 Wanza Drive,Homelca,RI,27801
3259720104148992,320 Odipi Path,Ludebum,IL,09772
535352139841536,391 Gaju Boulevard,Bobofig,NE,56153
2762119596474368,1969 Pehoh Center,Cusedam,KS,70304
1779352391909376,1534 Kebo Circle,Genvegfap,OR,11734
1596279687741440,1491 Osivit Lane,Zoalorab,OK,34759
314115006398464,1282 Juzas Pike,Fotimusal,VT,18114
764357575180288,717 Terul Trail,Kuratdap,MA,70162
457674246324224,1344 Hollej Key,Alodeoci,IL,65423
7235272792080384,680 Pivgeb Terrace,Owlunwel,GA,48744
4116595936854016,1679 Zopud Circle,Lisidosa,HI,66207
4508495466463232,803 Uwaju Court,Kenehro,IN,84718
3138809241796608,967 Imuec Grove,Opfelu,CO,01688
7696734111137792,127 Hujiv Path,Piushen,NV,62064
5987004240101376,781 Levba Key,Leipzib,MS,36034
6607363238789120,1696 Bepte Extension,Nubokle,NE,44186
3530423982358528,317 Cuhfoc Drive,Hopaju,IN,19164
7758369714601984,1092 Higmub Ridge,Lojilacu,AZ,23473
6606361727074304,1900 Ciaw Pike,Ululme,MO,29083
143830342959104,1067 Ageac Highway,Parisguv,VA,94750
1575195148025856,1361 Lolvuh Park,Woletik,PA,44420
2112151208591360,1261 Asuju Center,Macaged,UT,76472
1689395321110528,295 Lidaw Avenue,Gikima,MO,69214
1072897900675072,1819 Nolo Grove,Epikpev,MD,55731
6602950134726656,1473 Lukizu Pass,Milogad,FL,37464
6843388433268736,299 Forab Square,Hifimpat,VA,39604
5255340662718464,1281 Wemfut Park,Satave,RI,95421
7250258570510336,1200 Dunij Heights,Fegtowbaw,KY,85533
7051469133971456,777 Emum Drive,Galalji,LA,37929
2140542297178112,1536 Tizwow Boulevard,Ojpefbo,KY,90512
7647509669216256,987 Soefi Turnpike,Tecoav,AZ,18298
3871264970113024,1039 Visni Plaza,Ohejsuz,IN,29329
7128458270343168,123 Isoba Key,Momaal,CO,31681
4692350016159744,751 Mitu Glen,Hitini,HI,45930
1098876371075072,970 Huehe Ridge,Homagro,MS,52193
3282049683161088,13 Gercif Manor,Wazuhsid,PA,11158
7650753617330176,1819 Siudu Terrace,Jaabokop,UT,94090
4955349777907712,945 Fuhiw Mill,Atrarav,TX,29373
5745296696934400,1212 Icvov Center,Nobalot,MT,84669
2623608109137920,705 Jiafa Place,Dugmocono,MO,50028
619900752101376,307 Irpa Extension,Vejmomed,AZ,67325
6406442959503360,1818 Into Center,Vefrega,SC,36264
4630453071904768,1528 Etute Street,Wocdaare,NH,04656
149323534827520,124 Tepib Trail,Wotciga,SD,95560
6931880771321856,944 Demas Path,Kuztima,HI,65935
7876644427530240,670 Pago Mill,Wettacu,OR,54639
4094844456665088,527 Uraico Pike,Degfukzut,NC,47041
1740032136183808,361 Peec Street,Afesascac,MN,12470
7882040414306304,621 Nabon Loop,Malutuf,SC,22883
6306532545265664,50 Uropag Key,Veiwcor,MD,50858
5221802041147392,1912 Zusito Point,Wajihode,TX,70796
4288710749192192,52 Cobdet Loop,Alowabos,NJ,45038
4942771909558272,1785 Judab Plaza,Tupkogi,IA,71208
7055750996164608,102 Ruhuf Drive,Ohusavuc,WA,41529
8662099658014720,1773 Nooha River,Zesomhas,KS,46455
1711818022060032,105 Gutgoj Avenue,Duretzit,MN,46891
7742105977880576,1015 Fazhaf River,Vocodmom,KS,99983
5829204058832896,300 Zasija Grove,Zumeze,OH,48399
7696579498606592,472 Evebo Way,Oldiiw,IL,91597
1846224619569152,691 Mogaw Pike,Iderehi,NH,06563
4247432265203712,858 Iswod Path,Lafpogde,UT,74166
1781478518161408,757 Iliica Path,Afugugul,MD,82046
3081411927998464,1422 Zihi Mill,Puhzoki,NY,42838
2395306335404032,26 Lafag Manor,Heapraz,NJ,46315
6111014445645824,1316 Rodit Park,Vasotowu,MS,16726
7752153481347072,1549 Lukhu Place,Zektihi,CA,28806
2393093185732608,583 Gutu Way,Hoberi,WA,81797
8570244425580544,1770 Pile Trail,Pajetus,MO,65721
1917367944740864,1044 Dosuma View,Guisafi,WY,80976
1832568519393280,1770 Hefoh View,Lutefka,PA,33922
1461765510529024,1977 Tome River,Adnoras,SC,73987
1005856290242560,1418 Ipjik Parkway,Uranovit,DC,41038
8710563462905856,1158 Geco Grove,Tesiji,HI,77604
2298659689463808,546 Vemvi Park,Elciip,MN,71377
5307039674793984,1636 Ibra Center,Arosaum,MN,78425
3625559756111872,1083 Huifu Avenue,Baneaho,NC,00723
4496429504528384,328 Tahmer Circle,Judamoew,ME,41916
6565490897977344,1176 Aszu Glen,Cuonji,OH,92506
7791705755484160,665 Nuseh Terrace,Vaibse,NM,40263
6482954507255808,1557 Ruhhe Point,Jomoofo,IN,20764
8003820558745600,260 Jonwe Key,Tegake,WI,56984
6313969100783616,1313 Capaju Highway,Efahafas,DE,44745
529871121940480,611 Bucuho Parkway,Emipulti,SC,60373
387032188715008,70 Jahca Road,Bigvilve,TX,38199
8696228575444992,337 Emeliv Lane,Pufafmab,FL,44594
7905541135269888,550 Sokide Lane,Tumezop,MS,69604
5988782285258752,1642 Tosgiz Drive,Gavive,UT,09008
6887246068187136,1996 Normew River,Luforsef,TX,53069
4041779066175488,1116 Batep Street,Fanbodu,TN,25603
739148482740224,663 Juloz Junction,Bumzuok,ME,74842
5088705217822720,931 Bolub Ridge,Tapuku,PA,42656
4755024110419968,1184 Rofi Street,Ulwifo,OR,93058
2125649531633664,1498 Murad River,Uzdanuk,UT,62440
1782863374581760,1279 Ersa River,Fuururef,NC,70791
4772689503846400,788 Husew Lane,Izkamuh,AZ,05202
3258241253376000,453 Leluj Street,Otpoow,NH,96793
690842647920640,970 Hefbu Circle,Opbofoc,OK,83419
7021819932442624,1946 Mikhi Extension,Pomibeb,MD,40032
3314470344458240,562 Afuso Road,Ojzapoju,MT,10451
5496241859330048,114 Dajdor Place,Ubnuse,AL,30797
323831008854016,163 Gore View,Remniso,AL,09817
7867375946825728,1731 Ubiepe Grove,Nebruaki,WY,84246
3768688138256384,1183 Laskim Circle,Mipihja,MA,58701
2426990005059584,23 Owaj Circle,Rafgeug,MD,18091
7419684406165504,467 Kohon Drive,Wegadi,TX,90822
6264971535056896,294 Fooh Grove,Avzusim,DE,43306
3147279519186944,1755 Tajed Mill,Anripnuk,MT,69011
3612169285402624,1547 Pipud Extension,Otamese,KY,16709
981243061600256,679 Rigfef Extension,Vemnafzuj,MI,01132
8880135268728832,620 Alupo Street,Jilanmon,KS,63336
1708818285199360,1168 Muno Square,Resela,WV,58189
2556548580638720,949 Kefde Center,Atuenbeb,HI,82750
4870328033476608,1924 Ibima Pass,Newowgo,AR,85299
5709703784955904,723 Lume Junction,Otivihu,OH,80440
2420321990737920,717 Mimwi Pike,Tavovum,IL,16044
1339394197815296,534 Wahzo Court,Ulojepeh,SC,71471
221054756716544,489 Luraw Lane,Iftece,LA,83071
8551177503375360,1742 Wegbit Plaza,Pakohu,NE,68694
1812562010177536,78 Ruuz Mill,Civebadi,MD,05650
2633131586748416,1759 Jomep Glen,Sufavuk,DC,52770
4632179374030848,864 Dota Grove,Riocarij,ND,03639
3110010043236352,1607 Zojal View,Dojuhbak,NY,53386
8540195888562176,494 Guvzob Glen,Dabhiwa,MI,99376
5727333476466688,538 Nozsus Boulevard,Keimteb,CA,89202
6777495648993280,191 Fuvu Highway,Ortaca,WY,28044
7849002196271104,464 Vuuce Pass,Padmapnej,WY,94044
5856663934337024,1104 Kadu Center,Vojese,SC,31652
3678654255071232,1881 Uzaki River,Nacpukud,WA,45880
6403507162710016,506 Dobwo River,Kewzeta,NV,44883
7017937049223168,499 Duvsof Place,Cuhauki,IA,40437
2706576007757824,1831 Geha View,Afietoepe,NJ,86508
6172638216978432,1922 Gabmo Heights,Paldehuf,RI,37305
858276524720128,16 Gebib Parkway,Miralpe,CO,95801
2520942930558976,1567 Ojkih River,Ahdiwcu,TX,97608
7877436547006464,1238 Vudogi Ridge,Pompablaj,KS,84345
5250220640174080,242 Tamof Avenue,Gosawi,IN,26570
7631736382947328,1019 Wior Terrace,Uhokodro,IN,87358
8412369963188224,1055 Lira Drive,Jocuziw,HI,52655
2808352170049536,462 Sofe Pike,Fipojogu,NH,04851
3811737014894592,1434 Jewa Heights,Riunupud,OK,08882
5408685788495872,1743 Bepa Junction,Cisihov,DE,03790
1252145934368768,875 Sifcug Point,Jaefazis,WV,04542
3026042849591296,1124 Minji Mill,Bewepi,WV,16135
3406914123726848,171 Zuji Pike,Ahujekofa,MS,32691
3196822153592832,1646 Licel Highway,Miajag,WY,20080
3145845729918976,1565 Kogde Highway,Iluanelo,RI,97312
4848526087421952,576 Nusgan View,Livoimo,WI,38241
853539658137600,1712 Heip Square,Lufuscac,NH,07786
5245495305830400,926 Ichow Key,Puhihca,DE,46396
3816771895164928,1370 Ruka Pass,Kiebeko,NV,28227
4420213296594944,1839 Helno Court,Subpoov,AR,15853
6354313295167488,1947 Lirhar Point,Kevhuah,GA,42531
7076238984216576,896 Obfih Manor,Gunfegnij,IA,22887
391575951638528,762 Ivadi Pike,Pavetzen,SC,65271
3477706933010432,466 Zaas Key,Cogdijige,KS,63855
2070235800666112,1839 Mofov Park,Osefuwen,RI,57966
1172672029392896,379 Hipo Heights,Rirewut,MN,22607
2105357272875008,537 Ceof Pass,Cewsakos,NJ,73403
2298794634903552,581 Gokve Key,Jibcosku,IL,00313
8246680566628352,995 Doge View,Jidvevew,DE,48747
8761643282464768,1467 Lonut Drive,Ubtuwcuv,TN,99142
4477984419348480,1453 Wiji Place,Nausiise,NM,11220
1134760195784704,1200 Ihesuc Parkway,Ruvekzow,FL,99392
6593607932837888,1877 Vipi Road,Zosokuwi,KS,56530
4624412802285568,1245 Zarda Loop,Rufhazoz,MO,76343
8035588536008704,203 Isjup Square,Macebguz,DE,57232
2379074685108224,1167 Jugu Square,Tigwiled,VT,06709
1917794933276672,1576 Miwof Junction,Caftehuj,TX,05759
6775926048161792,987 Guncej Road,Kuzgalil,WY,13761
5288560798203904,1296 Uvde Point,Pigehha,IN,93070
8857917459529728,1419 Apolo Place,Amuwezire,NV,64842
1970054589579264,1816 Ipub Ridge,Orizimo,AK,34536
8424426190143488,656 Joslit Key,Mocfajgoc,AL,71095
1314180011393024,412 Fohit Path,Zubabvep,IN,62278
1768899471212544,1464 Hirfa Parkway,Pokacrev,CO,25319
5858645707325440,1931 Jutvag Place,Ifekgo,NM,52889
2624978824462336,1473 Dihal Pass,Bunkasvo,PA,92684
5314936255283200,1733 Ifuigi Extension,Koihhen,WY,29008
61493206843392,1233 Nembe Terrace,Koereife,NH,52017
2932271436791808,1884 Wojno Trail,Zakonad,NC,79506
7827516605595648,314 Zuga Manor,Icfawa,NH,56600
5387871596838912,218 Omadi Pass,Hitrohgif,UT,43425
4059477124841472,1401 Lorus Court,Jorsoma,OH,82203
1463494427803648,1623 Nicpik Circle,Sageftij,MN,29039
7300768824557568,31 Uske Loop,Asinegpe,FL,76507
2702461745758208,733 Tunzo View,Zeawmon,NE,87836
1660574555439104,1575 Rudse Pike,Tocceza,SC,49339
4426771199950848,803 Hukip Terrace,Hacsemaj,KS,44446
4791087893839872,892 Zouda Path,Raihami,KY,95812
2747674765819904,1439 Zipto Ridge,Pawizamif,OH,70375
6234488327634944,77 Hufaf Pass,Retise,SC,96006
2153357665894400,1709 Cizzul Boulevard,Badhiffu,NY,41981
3902665924804608,1460 Pizok Manor,Rosgawa,IL,06023
5090802185273344,587 Rawhim Road,Forjosgur,DC,89865
4756215359864832,1098 Susuzu Manor,Zujujgu,SC,53436
6046438976913408,97 Rashi Place,Dafkadhih,RI,19182
888603712421888,1151 Gazot Terrace,Piolsa,AK,54352
5676445441458176,32 Soro Plaza,Zudized,FL,08874
8706481587224576,370 Okeoh Plaza,Gomziiv,NY,47302
5797696908558336,1215 Ecwo Pass,Vudsikwu,AL,64487
8444240289857536,1749 Dolcuw Manor,Jeawope,KS,40762
7443578915651584,1551 Hurej River,Nucrihu,NE,44474
5238951803617280,212 Kiruc Park,Taziso,FL,88034
3307567778365440,1397 Sepcev Boulevard,Sijkuube,DE,39082
7213132392955904,436 Juzi Road,Jiriwjid,NV,23228
1253741000916992,623 Gimmim Key,Murutah,MD,11447
17847287808000,487 Ivaaka Square,Evagoka,UT,83693
7744217734447104,138 Bewes View,Evbisume,ND,68137
7415114934255616,1666 Wabot Point,Pumuogu,IN,78925
2811078452969472,1170 Bovkol Park,Pafuwso,OK,13483
2810822969524224,1450 Darget Ridge,Mahite,ME,03379
7610842541457408,111 Hehjak Boulevard,Sakerma,AK,20891
5023276612976640,82 Detruw Path,Ocasilpo,WY,72606
7673129390309376,68 Kijer Ridge,Egepiban,WI,33619
6477902864449536,1042 Suzgo Mill,Lasmuje,UT,68939
9006928208330752,1517 Bihuc Trail,Bodduli,MA,14788
1935500403277824,1317 Volak Square,Kulumke,MN,54355
2377344029294592,1424 Fiul Way,Hibwowvo,MT,18035
4708275859750912,689 Zacwuv Highway,Noduvefo,WY,58782
1268796121677824,498 Vada Center,Ehpozoc,IA,79730
5826831408168960,19 Zuzfen Loop,Tukcihu,MO,17177
4990382697873408,368 Diiji View,Usgelo,NH,04313
3115207763165184,698 Mano Highway,Fajitof,UT,02574
7445791603949568,640 Tusog Extension,Lepemit,HI,78239
1917374554963968,1188 Pasri Path,Tegfofre,OK,35457
7405157383929856,1562 Cino Street,Beujniw,CO,63803
5353301738520576,1812 Wudsa Point,Zinosu,NC,07613
6435002367606784,1315 Buogu Boulevard,Gimitjo,NH,91644
8820226950955008,997 Rigop Pass,Inetedlok,DC,47520
1341450962862080,1701 Harfa Center,Katoguhu,KY,51094
5790719553830912,667 Ucerap Path,Timoza,NY,24077
3377129949495296,472 Cueru Pass,Nuviok,NJ,40978
6771262714019840,312 Difet Place,Vawnerra,CA,26062
1328665392578560,1335 Novo Mill,Zucruziz,NC,23209
7366654254120960,971 Wida Road,Locagez,PA,61764
2780508444426240,1867 Savu Boulevard,Mizospi,WV,13697
4092874243178496,649 Bivof Mill,Zitnotwad,NY,80543
6924116521123840,776 Watu Pike,Fubsapman,VT,30118
1743439100116992,727 Wafew Extension,Jokedoja,MS,00899
1010984766406656,1402 Kodum Grove,Minega,MI,19269
7876766888624128,935 Avenob Highway,Enhirsi,NH,98058
7421770705403904,1896 Rikfo River,Jawfonde,NH,45543
8202592089800704,1061 Pirvaj Turnpike,Bisukarur,MA,94178
3920620727304192,1225 Andog Circle,Fobota,NE,44158
8889177292668928,847 Saob Street,Abesujsub,MD,95641
3070593685520384,1234 Jeer Highway,Joslaluc,HI,03788
6510833385340928,1733 Zeli Loop,Jevurowil,VA,55962
6962472147746816,593 Anula Key,Osilocbeg,TN,05510
2348549010358272,206 Biwwar Grove,Ebegewok,RI,74841
1107007127945216,782 Sorte Court,Ujcoek,MT,57226
221502899224576,1615 Uguwe Plaza,Tijrecu,TN,67352
3309571292528640,1090 Utfe Place,Upufatop,DC,94634
665423945138176,1948 Judziw River,Kitjekir,NC,79626
5873487256223744,1916 Rebug Terrace,Zatvecho,ID,49778
4217746984271872,530 Zorfo Extension,Wajkebel,KS,18722
4798548717600768,277 Tebe Pike,Cefeselo,WA,81572
6773188677599232,1979 Ihuhi Mill,Baggago,LA,40653
390221250166784,1319 Hafovi Path,Cufcuju,TN,61741
7901002923507712,347 Cuknit Road,Hahucane,IN,17185
8331368865988608,401 Biwe Boulevard,Vofokce,NY,01102
2793641938518016,817 Noeh Ridge,Jabovpow,GA,85923
6103831234478080,1898 Vapdil Path,Katveruf,WI,23851
265753557204992,1373 Madvid Heights,Ubekuom,CT,69470
1089570217132032,124 Uvbu Loop,Aloduga,NV,55716
8658432139722752,1393 Nanun Park,Fugamgop,WY,34752
7118882099691520,1434 Mogkut Loop,Vivizeve,WY,43717
4604588898385920,50 Wevvam Center,Culdawne,RI,31420
3933434644791296,1308 Joosu Road,Sajiso,WY,70294
4547667940081664,1145 Fala Ridge,Wobipci,NC,31777
3808912497180672,586 Kisap River,Hoflafu,SD,80334
6009006183153664,1803 Gumec Highway,Seutozil,OK,86060
8286281052192768,661 Gevar Way,Ogebuwta,TX,85630
5118483822018560,1975 Tedro Loop,Petaciz,WA,57243
68074870931456,975 Gohhe Road,Bekkurew,MT,50452
5652719131951104,1006 Igeub Junction,Vodzojtec,OR,70559
7275833982976,89 Pasije Key,Uldondim,AZ,21899
